{"type": "FeatureCollection", "_note": "Rough digitization of Draft Plan v1.1 Section 6 target areas. All geometries are approximate placeholders until HPDS zone shapefiles arrive. jurisdiction/category follow the Section 6 table; publish_public=false hides the feature from the public build until landowner consent is recorded (Section 12.4).", "features": [{"type": "Feature", "properties": {"id": "staging_lot", "name": "KOCA Green-Waste Staging Lot", "jurisdiction": "KOCA", "category": "Known staging site", "publish_public": true, "geometry_status": "approximate", "notes": "Red triangle on Hogan's map. Subject to KOCA 72-hour retention policy; primary ground-truth site for pile-age validation."}, "geometry": {"type": "Polygon", "coordinates": [[[-158.1195, 21.3392], [-158.1183, 21.3392], [-158.1183, 21.3384], [-158.1195, 21.3384], [-158.1195, 21.3392]]]}}, {"type": "Feature", "properties": {"id": "farrington_interchange", "name": "Farrington Hwy Interchange", "jurisdiction": "KOCA / State ROW", "category": "High-damage zone", "publish_public": true, "geometry_status": "approximate", "notes": "Recommended Smart Trap #1. Border with State right-of-way; representative test of pressure from adjacent uncontrolled land."}, "geometry": {"type": "Polygon", "coordinates": [[[-158.1225, 21.3455], [-158.118, 21.3455], [-158.118, 21.3418], [-158.1225, 21.3418], [-158.1225, 21.3455]]]}}, {"type": "Feature", "properties": {"id": "upper_koio", "name": "Upper Koio Drive", "jurisdiction": "KOCA", "category": "High-damage zone", "publish_public": true, "geometry_status": "approximate", "notes": "Recommended Smart Trap #2. Internal reference site for within-jurisdiction trend."}, "geometry": {"type": "Polygon", "coordinates": [[[-158.1168, 21.344], [-158.114, 21.344], [-158.114, 21.3385], [-158.1168, 21.3385], [-158.1168, 21.344]]]}}, {"type": "Feature", "properties": {"id": "kekai_place", "name": "Kekai Place (eastern end)", "jurisdiction": "KOCA", "category": "High-damage zone", "publish_public": true, "geometry_status": "approximate", "notes": "Small cluster. Covered by drone flight; not a trap priority in Phase 0."}, "geometry": {"type": "Polygon", "coordinates": [[[-158.116, 21.3345], [-158.1135, 21.3345], [-158.1135, 21.3325], [-158.116, 21.3325], [-158.116, 21.3345]]]}}, {"type": "Feature", "properties": {"id": "marina_jetty", "name": "Marina / Kalaeloa Harbor Jetty", "jurisdiction": "KOCA / DOT-H", "category": "High-damage zone", "publish_public": true, "geometry_status": "approximate", "notes": "Recommended Smart Trap #3. Boundary site with the commercial harbor; cross-parcel pressure."}, "geometry": {"type": "Polygon", "coordinates": [[[-158.12, 21.3305], [-158.116, 21.3305], [-158.116, 21.327], [-158.12, 21.327], [-158.12, 21.3305]]]}}, {"type": "Feature", "properties": {"id": "hpds_footprint", "name": "HPDS Refined Flight Footprint (8 zones + 1-mile buffer)", "jurisdiction": "Mixed", "category": "Flight coverage", "publish_public": true, "geometry_status": "approximate", "notes": "Approximately 239 acres across eight segmented zones. Replace with HPDS delivered zone boundaries."}, "geometry": {"type": "Polygon", "coordinates": [[[-158.133, 21.356], [-158.104, 21.356], [-158.104, 21.323], [-158.133, 21.323], [-158.133, 21.356]]]}}]}